NORAD_CAT_ID,OBJECT_NAME,OBJECT_TYPE,EPOCH,MEAN_MOTION,ECCENTRICITY,INCLINATION,RA_OF_ASC_NODE,ARG_OF_PERICENTER,MEAN_ANOMALY,BSTAR,MEAN_MOTION_DOT,MEAN_MOTION_DDOT,TLE_LINE0,TLE_LINE1,TLE_LINE2,SEMIMAJOR_AXIS,PERIOD,APOGEE,PERIGEE,DECAYED
53933.0,STARLINK-4782,PAYLOAD,2024-03-04 12:49:01,15.08845861,0.0001358,53.2192,4.2197,92.1513,267.9634,0.0001091,1.449e-05,0.0,0 STARLINK-4782,1 53933U 22119AZ  24064.53404619  .00001449  00000-0  10910-3 0  9998,2 53933  53.2192   4.2197 0001358  92.1513 267.9634 15.08845861 80986,6917.862,95.437,540.667,538.788,0.0
53933.0,STARLINK-4782,PAYLOAD,2024-03-05 03:07:31,15.08833331,0.0001545,53.2194,1.5435,77.6613,282.4552,-5.6852e-05,-1.193e-05,0.0,0 STARLINK-4782,1 53933U 22119AZ  24065.13022287 -.00001193  00000-0 -56852-4 0  9996,2 53933  53.2194   1.5435 0001545  77.6613 282.4552 15.08833331 80654,6917.901,95.438,540.835,538.697,0.0
53933.0,STARLINK-4782,PAYLOAD,2024-03-05 04:42:53,15.08840149,0.0001238,53.2179,1.2438,83.7271,276.3862,2.0867e-05,4.4e-07,0.0,0 STARLINK-4782,1 53933U 22119AZ  24065.19645518  .00000044  00000-0  20867-4 0  9999,2 53933  53.2179   1.2438 0001238  83.7271 276.3862 15.08840149 81083,6917.88,95.438,540.601,538.888,0.0
53933.0,STARLINK-4782,PAYLOAD,2024-03-06 04:33:41,15.08829792,0.0001361,53.2194,356.7843,73.0138,287.1003,-0.00015487,-2.751e-05,0.0,0 STARLINK-4782,1 53933U 22119AZ  24066.19006223 -.00002751  00000-0 -15487-3 0  9994,2 53933  53.2194 356.7843 0001361  73.0138 287.1003 15.08829792 80817,6917.912,95.438,540.718,538.835,0.0
53933.0,STARLINK-4782,PAYLOAD,2024-03-07 01:13:41,15.08826938,0.0001091,53.2183,352.9201,78.9633,281.1482,9.7699e-05,1.267e-05,0.0,0 STARLINK-4782,1 53933U 22119AZ  24067.05118017  .00001267  00000-0  97699-4 0  9990,2 53933  53.2183 352.9201 0001091  78.9633 281.1482 15.08826938 80943,6917.92,95.438,540.54,539.031,0.0
53933.0,STARLINK-4782,PAYLOAD,2024-03-07 12:21:24,15.08832251,0.0001443,53.2201,350.8372,83.7041,276.4115,-4.9337e-06,-3.66e-06,0.0,0 STARLINK-4782,1 53933U 22119AZ  24067.51486197 -.00000366  00000-0 -49337-5 0  9996,2 53933  53.2201 350.8372 0001443  83.7041 276.4115 15.08832251 81438,6917.904,95.438,540.767,538.771,0.0
53933.0,STARLINK-4782,PAYLOAD,2024-03-08 04:15:15,15.08823882,0.0001712,53.2202,347.8618,95.5086,264.6102,0.00016692,2.368e-05,0.0,0 STARLINK-4782,1 53933U 22119AZ  24068.17726274  .00002368  00000-0  16692-3 0  9990,2 53933  53.2202 347.8618 0001712  95.5086 264.6102 15.08823882 81117,6917.93,95.439,540.979,538.61,0.0
53933.0,STARLINK-4782,PAYLOAD,2024-03-09 04:06:01,15.08840477,0.0001801,53.2194,343.4007,108.7999,251.3188,0.00016166,2.286e-05,0.0,0 STARLINK-4782,1 53933U 22119AZ  24069.17085629  .00002286  00000-0  16166-3 0  9998,2 53933  53.2194 343.4007 0001801 108.7999 251.3188 15.08840477 81262,6917.879,95.438,540.99,538.498,0.0
53933.0,STARLINK-4782,PAYLOAD,2024-03-10 03:56:46,15.08883134,0.0001407,53.219,338.9412,98.8754,261.2397,0.00042698,6.522e-05,0.0,0 STARLINK-4782,1 53933U 22119AZ  24070.16442208  .00006522  00000-0  42698-3 0  9995,2 53933  53.2190 338.9412 0001407  98.8754 261.2397 15.08883134 81413,6917.749,95.435,540.587,538.64,0.0
53933.0,STARLINK-4782,PAYLOAD,2024-03-10 10:18:21,15.08847702,0.0001996,53.2192,337.7516,81.2811,278.8407,0.0001153,1.548e-05,0.0,0 STARLINK-4782,1 53933U 22119AZ  24070.42941068  .00001548  00000-0  11530-3 0  9996,2 53933  53.2192 337.7516 0001996  81.2811 278.8407 15.08847702 81451,6917.857,95.437,541.103,538.341,0.0
53933.0,STARLINK-4782,PAYLOAD,2024-03-10 21:26:03,15.08846351,0.0001676,53.219,335.6758,91.9128,268.2056,-0.00011279,-2.083e-05,0.0,0 STARLINK-4782,1 53933U 22119AZ  24070.89309623 -.00002083  00000-0 -11279-3 0  9999,2 53933  53.2190 335.6758 0001676  91.9128 268.2056 15.08846351 81944,6917.861,95.437,540.885,538.567,0.0
53933.0,STARLINK-4782,PAYLOAD,2024-03-11 10:09:08,15.08840917,0.0001072,53.2172,333.2902,94.3018,265.8096,-2.9416e-05,-7.56e-06,0.0,0 STARLINK-4782,1 53933U 22119AZ  24071.42301322 -.00000756  00000-0 -29416-4 0  9995,2 53933  53.2172 333.2902 0001072  94.3018 265.8096 15.08840917 81606,6917.878,95.437,540.484,539.001,0.0
53933.0,STARLINK-4782,PAYLOAD,2024-03-13 01:53:48,15.08830958,0.0001592,53.218,325.8594,91.4396,268.6779,2.6058e-05,1.27e-06,0.0,0 STARLINK-4782,1 53933U 22119AZ  24073.07902808  .00000127  00000-0  26058-4 0  9993,2 53933  53.2180 325.8594 0001592  91.4396 268.6779 15.08830958 81853,6917.908,95.438,540.874,538.672,0.0
53933.0,STARLINK-4782,PAYLOAD,2024-03-13 09:50:43,15.08837425,0.0001509,53.2179,324.3736,88.5496,271.5669,4.4814e-05,4.25e-06,0.0,0 STARLINK-4782,1 53933U 22119AZ  24073.41022494  .00000425  00000-0  44814-4 0  9996,2 53933  53.2179 324.3736 0001509  88.5496 271.5669 15.08837425 82329,6917.888,95.438,540.797,538.709,0.0
53933.0,STARLINK-4782,PAYLOAD,2024-03-13 22:33:48,15.0884323,0.0001678,53.2186,321.993,85.1187,274.9997,5.9442e-05,6.58e-06,0.0,0 STARLINK-4782,1 53933U 22119AZ  24073.94014148  .00000658  00000-0  59442-4 0  9992,2 53933  53.2186 321.9930 0001678  85.1187 274.9997 15.08843230 82404,6917.871,95.437,540.896,538.575,0.0
53933.0,STARLINK-4782,PAYLOAD,2024-03-14 00:09:11,15.08842815,0.0001442,53.2188,321.695,88.4958,271.6199,0.00010872,1.443e-05,0.0,0 STARLINK-4782,1 53933U 22119AZ  24074.00638693  .00001443  00000-0  10872-3 0  9993,2 53933  53.2188 321.6950 0001442  88.4958 271.6199 15.08842815 82413,6917.872,95.437,540.734,538.739,0.0
53933.0,STARLINK-4782,PAYLOAD,2024-03-14 20:49:13,15.08843395,0.0001625,53.2165,317.8347,64.8905,295.2255,-1.5364e-05,-5.33e-06,0.0,0 STARLINK-4782,1 53933U 22119AZ  24074.86751236 -.00000533  00000-0 -15364-4 0  9999,2 53933  53.2165 317.8347 0001625  64.8905 295.2255 15.08843395 82125,6917.87,95.437,540.859,538.611,0.0
53933.0,STARLINK-4782,PAYLOAD,2024-03-14 22:24:35,15.08845124,0.000148,53.2179,317.5338,105.3756,254.7399,0.000103,1.352e-05,0.0,0 STARLINK-4782,1 53933U 22119AZ  24074.93374530  .00001352  00000-0  10300-3 0  9997,2 53933  53.2179 317.5338 0001480 105.3756 254.7399 15.08845124 82559,6917.865,95.437,540.754,538.706,0.0
53933.0,STARLINK-4782,PAYLOAD,2024-03-15 22:15:22,15.0884833,0.0001429,53.217,313.077,78.1486,281.9666,3.9399e-05,3.39e-06,0.0,0 STARLINK-4782,1 53933U 22119AZ  24075.92734519  .00000339  00000-0  39399-4 0  9998,2 53933  53.2170 313.0770 0001429  78.1486 281.9666 15.08848330 82709,6917.855,95.437,540.708,538.731,0.0
53933.0,STARLINK-4782,PAYLOAD,2024-03-16 20:30:48,15.08805336,0.0001323,53.2173,308.913,99.994,260.1201,0.00048957,7.505e-05,0.0,0 STARLINK-4782,1 53933U 22119AZ  24076.85472380  .00007505  00000-0  48957-3 0  9997,2 53933  53.2173 308.9130 0001323  99.9940 260.1201 15.08805336 82426,6917.986,95.44,540.767,538.936,0.0
53933.0,STARLINK-4782,PAYLOAD,2024-03-16 22:06:10,15.08837047,0.0001463,53.2174,308.617,83.1328,276.983,1.1489e-05,-1.05e-06,0.0,0 STARLINK-4782,1 53933U 22119AZ  24076.92095315 -.00000105  00000-0  11489-4 0  9995,2 53933  53.2174 308.6170 0001463  83.1328 276.9830 15.08837047 82852,6917.889,95.438,540.767,538.742,0.0
53933.0,STARLINK-4782,PAYLOAD,2024-03-17 20:21:34,15.0879304,0.0001858,53.2174,304.4558,85.3451,274.7753,0.00073589,0.00011428,0.0,0 STARLINK-4782,1 53933U 22119AZ  24077.84832142  .00011428  00000-0  73589-3 0  9991,2 53933  53.2174 304.4558 0001858  85.3451 274.7753 15.08793040 82578,6918.024,95.441,541.174,538.604,0.0
53933.0,STARLINK-4782,PAYLOAD,2024-03-17 21:56:57,15.08806669,0.0001672,53.2176,304.1576,94.1984,265.9199,0.00057361,8.845e-05,0.0,0 STARLINK-4782,1 53933U 22119AZ  24077.91455791  .00008845  00000-0  57361-3 0  9999,2 53933  53.2176 304.1576 0001672  94.1984 265.9199 15.08806669 83007,6917.982,95.44,541.004,538.691,0.0
53933.0,STARLINK-4782,PAYLOAD,2024-03-18 01:07:43,15.08840367,0.0001386,53.2169,303.556,84.8753,275.2397,0.00015153,2.125e-05,0.0,0 STARLINK-4782,1 53933U 22119AZ  24078.04702724  .00002125  00000-0  15153-3 0  9993,2 53933  53.2169 303.5560 0001386  84.8753 275.2397 15.08840367 82609,6917.879,95.438,540.703,538.785,0.0
53933.0,STARLINK-4782,PAYLOAD,2024-03-18 20:12:21,15.08835288,0.0001431,53.2167,299.9858,77.0711,283.0441,5.2963e-05,5.55e-06,0.0,0 STARLINK-4782,1 53933U 22119AZ  24078.84191399  .00000555  00000-0  52963-4 0  9997,2 53933  53.2167 299.9858 0001431  77.0711 283.0441 15.08835288 82720,6917.895,95.438,540.75,538.77,0.0
53933.0,STARLINK-4782,PAYLOAD,2024-03-18 21:47:44,15.08835598,0.0001447,53.217,299.6884,82.4993,277.6163,6.24e-05,7.05e-06,0.0,0 STARLINK-4782,1 53933U 22119AZ  24078.90815326  .00000705  00000-0  62400-4 0  9991,2 53933  53.2170 299.6884 0001447  82.4993 277.6163 15.08835598 83151,6917.894,95.438,540.76,538.758,0.0
53933.0,STARLINK-4782,PAYLOAD,2024-03-19 00:58:30,15.0883781,0.0001463,53.2171,299.0932,92.8763,267.2397,5.1474e-05,5.31e-06,0.0,0 STARLINK-4782,1 53933U 22119AZ  24079.04063195  .00000531  00000-0  51474-4 0  9992,2 53933  53.2171 299.0932 0001463  92.8763 267.2397 15.08837810 83173,6917.887,95.438,540.764,538.74,0.0
53933.0,STARLINK-4782,PAYLOAD,2024-03-19 21:38:30,15.08848367,0.0001385,53.2169,295.229,95.3396,264.7755,6.8193e-05,7.98e-06,0.0,0 STARLINK-4782,1 53933U 22119AZ  24079.90174512  .00000798  00000-0  68193-4 0  9994,2 53933  53.2169 295.2290 0001385  95.3396 264.7755 15.08848367 82884,6917.855,95.437,540.678,538.762,0.0
53933.0,STARLINK-4782,PAYLOAD,2024-03-20 19:53:55,15.08836868,0.0001432,53.2168,291.0663,109.7933,250.3214,1.9653e-05,2.5e-07,0.0,0 STARLINK-4782,1 53933U 22119AZ  24080.82911604  .00000025  00000-0  19653-4 0  9998,2 53933  53.2168 291.0663 0001432 109.7933 250.3214 15.08836868 83022,6917.89,95.438,540.746,538.764,0.0
53933.0,STARLINK-4782,PAYLOAD,2024-03-20 21:29:18,15.08836102,0.0001324,53.2169,290.7673,103.5543,256.5597,3.6499e-05,2.93e-06,0.0,0 STARLINK-4782,1 53933U 22119AZ  24080.89535623  .00000293  00000-0  36499-4 0  9992,2 53933  53.2169 290.7673 0001324 103.5543 256.5597 15.08836102 83459,6917.892,95.438,540.673,538.841,0.0
